BEIDOU 3 (C01)          
1 36287U 10001A   22282.64575481 -.00000291  00000+0  00000+0 0  9995
2 36287   1.7079  47.9256 0000372 346.2620 356.9977  1.00270617 46651
BEIDOU 5 (C06)          
1 36828U 10036A   22282.00843516 -.00000132  00000+0  00000+0 0  9995
2 36828  54.1984 175.1921 0030233 187.0424 126.0877  1.00265980 44711
BEIDOU 6 (C04)          
1 37210U 10057A   22282.21888345 -.00000126  00000+0  00000+0 0  9999
2 37210   0.7593  39.6596 0007229 149.7354  67.1776  1.00270815 43779
BEIDOU 7 (C07)          
1 37256U 10068A   22282.46227304 -.00000198  00000+0  00000+0 0  9999
2 37256  50.0115 288.2802 0023835 206.0519 158.2596  1.00271055 43296
BEIDOU 8 (C08)          
1 37384U 11013A   22282.64686337 -.00000192  00000+0  00000+0 0  9991
2 37384  60.4596  53.1320 0024564 178.8787 127.5305  1.00277392 42165
BEIDOU 9 (C09)          
1 37763U 11038A   22282.56146993 -.00000075  00000+0  00000+0 0  9999
2 37763  54.4791 177.6916 0098907 227.6378 268.3568  1.00257817 41142
BEIDOU 10 (C10)         
1 37948U 11073A   22282.48900774 -.00000151  00000+0  00000+0 0  9994
2 37948  50.1283 287.9270 0086685 220.1354 141.8537  1.00268254 39905
BEIDOU 11 (C05)         
1 38091U 12008A   22282.65840668  .00000046  00000+0  00000+0 0  9999
2 38091   1.8173  69.9569 0009820 339.8442 264.1610  1.00272366 38973
BEIDOU 12 (C11)         
1 38250U 12018A   22282.56962808 -.00000101  00000+0  00000+0 0  9991
2 38250  56.6583 349.7891 0023983 251.4357 149.1151  1.86234310 71217
BEIDOU 13 (C12)         
1 38251U 12018B   22281.90465883 -.00000099  00000+0  00000+0 0  9996
2 38251  56.5742 349.1298 0014389 251.0281 107.8479  1.86234218 71199
BEIDOU 15 (C14)         
1 38775U 12050B   22282.79782271  .00000036  00000+0  00000+0 0  9994
2 38775  55.4778 107.8328 0011377 334.4729  99.0590  1.86231615 68591
BEIDOU 16 (C02)         
1 38953U 12059A   22282.63462558 -.00000186  00000+0  00000+0 0  9994
2 38953   1.2023  81.3279 0023787 295.4698 313.9487  1.00267905 36541
BEIDOU 17 (C31)         
1 40549U 15019A   22282.56446216 -.00000165  00000+0  00000+0 0  9999
2 40549  51.6890 311.4287 0038654 198.5974 167.1468  1.00272638 27582
BEIDOU 18 (C57)         
1 40748U 15037A   22281.74092713 -.00000099  00000+0  00000+0 0  9994
2 40748  55.8231 347.9332 0000993   4.7908 153.6002  1.86233120 49027
BEIDOU 19 (C58)         
1 40749U 15037B   22281.83938215 -.00000099  00000+0  00000+0 0  9991
2 40749  55.8265 347.9199 0003499 294.8636  63.7185  1.86233061 49016
BEIDOU 20 (C18)         
1 40938U 15053A   22282.44910437 -.00000141  00000+0  00000+0 0  9991
2 40938  51.3270 274.5584 0046014 200.1792 161.1327  1.00266802 25851
BEIDOU IGSO-6 (C13)     
1 41434U 16021A   22282.28157031 -.00000155  00000+0  00000+0 0  9999
2 41434  58.2689  51.6588 0045737 215.2619 306.3901  1.00261215 23972
BEIDOU-2 G7 (C03)       
1 41586U 16037A   22282.57019713 -.00000365  00000+0  00000+0 0  9993
2 41586   1.6260  68.3550 0007522 353.0074 272.6336  1.00269085 23281
BEIDOU-3 M1 (C19)       
1 43001U 17069A   22282.23927641  .00000043  00000+0  00000+0 0  9996
2 43001  55.6201 107.8704 0007436 294.6167 280.8065  1.86231689 33516
BEIDOU-3 M2 (C20)       
1 43002U 17069B   22282.12829557  .00000044  00000+0  00000+0 0  9993
2 43002  55.6189 107.9105 0005983 327.0767 216.8015  1.86231336 33502
BEIDOU-3 M3 (C27)       
1 43107U 18003A   22282.14146912 -.00000102  00000+0  00000+0 0  9993
2 43107  55.2754 348.7865 0003425  68.7191 290.2843  1.86232246 32267
BEIDOU-3 M4 (C28)       
1 43108U 18003B   22281.74807411 -.00000101  00000+0  00000+0 0  9996
2 43108  55.2686 348.7887 0003860 240.5709 257.9323  1.86230722 32264
BEIDOU-3 M5 (C21)       
1 43207U 18018A   22280.37501749  .00000058  00000+0  00000+0 0  9995
2 43207  55.5773 108.0439 0004531   7.7449 352.3308  1.86231661 31629
BEIDOU-3 M6 (C22)       
1 43208U 18018B   22282.05254876  .00000045  00000+0  00000+0 0  9995
2 43208  55.5785 107.9925 0005409 310.2848  49.7286  1.86231577 31652
BEIDOU-3 M7 (C29)       
1 43245U 18029A   22281.97202663 -.00000099  00000+0  00000+0 0  9995
2 43245  55.1843 346.5537 0001176 217.5989 298.3203  1.86232472 30808
BEIDOU-3 M8 (C30)       
1 43246U 18029B   22282.28482331 -.00000100  00000+0  10000-3 0  9991
2 43246  55.1809 346.5716 0002893 349.8245  62.4458  1.86232938 30800
BEIDOU IGSO-7 (C16)     
1 43539U 18057A   22282.61285544 -.00000132  00000+0  00000+0 0  9991
2 43539  55.0909 174.7226 0051685 227.1644 311.5015  1.00275838 15651
BEIDOU-3 M9 (C23)       
1 43581U 18062A   22281.62473721 -.00000035  00000+0  00000+0 0  9992
2 43581  54.2487 228.2116 0005528 281.0144 260.0116  1.86231985 28532
BEIDOU-3 M10 (C24)      
1 43582U 18062B   22281.48027465 -.00000036  00000+0  00000+0 0  9998
2 43582  54.2485 228.2053 0005377 347.3078 188.7854  1.86232455 28533
BEIDOU-3 M11 (C25)      
1 43602U 18067A   22281.42874551 -.00000036  00000+0  00000+0 0  9996
2 43602  54.3321 226.8324 0007156   3.7697 178.9137  1.86231602 28020
BEIDOU-3 M12 (C26)      
1 43603U 18067B   22281.58310164 -.00000035  00000+0  00000+0 0  9998
2 43603  54.3284 226.7935 0004475 348.4137 208.1111  1.86231534 28049
BEIDOU-3 M13 (C32)      
1 43622U 18072A   22281.80958885  .00000047  00000+0  00000+0 0  9990
2 43622  55.5455 107.5474 0004322 289.8394  87.5310  1.86231792 27563
BEIDOU-3 M14 (C33)      
1 43623U 18072B   22280.99077914  .00000054  00000+0  00000+0 0  9993
2 43623  55.5472 107.5662 0002838 339.6556 298.9816  1.86231799 27540
BEIDOU-3 M15 (C34)      
1 43647U 18078A   22281.39137707 -.00000098  00000+0  10000-3 0  9991
2 43647  55.0799 346.7225 0005162   0.2899  82.6018  1.86232634 27067
BEIDOU-3 M16 (C35)      
1 43648U 18078B   22281.41871506 -.00000098  00000+0  00000+0 0  9992
2 43648  55.0756 346.7268 0002931  16.2048 352.5877  1.86232295 27089
BEIDOU-3 G1 (C59)       
1 43683U 18085A   22282.50363103 -.00000290  00000+0  00000+0 0  9993
2 43683   1.0240 148.8435 0004573  45.5878 144.9070  1.00276778 14550
BEIDOU-3 M17 (C36)      
1 43706U 18093A   22281.55606220 -.00000035  00000+0  00000+0 0  9999
2 43706  54.3299 228.1076 0010117 280.1512  79.6989  1.86231887 26447
BEIDOU-3 M18 (C37)      
1 43707U 18093B   22281.90491731 -.00000033  00000+0  00000+0 0  9996
2 43707  54.3317 228.0860 0009173 301.7155  23.3584  1.86232305 26434
BEIDOU-3 IGSO-1 (C38)   
1 44204U 19023A   22282.57918634 -.00000222  00000+0  00000+0 0  9993
2 44204  56.7299  51.7502 0023841 189.1421 105.5578  1.00275380 12851
BEIDOU-2 G8             
1 44231U 19027A   22282.64779889 -.00000259  00000+0  00000+0 0  9992
2 44231   1.1337  79.2680 0006407 121.0970 195.5850  1.00268232 12561
BEIDOU-3 IGSO-2 (C39)   
1 44337U 19035A   22281.85621250 -.00000135  00000+0  00000+0 0  9991
2 44337  55.1259 170.7160 0025475 190.6289  84.0560  1.00269794 12183
BEIDOU-3 M23 (C45)      
1 44542U 19061A   22282.02930999 -.00000032  00000+0  00000+0 0  9997
2 44542  54.5566 228.2561 0008890 336.8681  23.0566  1.86231473 20704
BEIDOU-3 M24 (C46)      
1 44543U 19061B   22280.83035637 -.00000037  00000+0  00000+0 0  9995
2 44543  54.5556 228.2657 0006460 319.3979 228.1371  1.86231864 20679
BEIDOU-3 IGSO-3         
1 44709U 19073A   22282.51055100 -.00000170  00000+0  10000-3 0  9999
2 44709  57.0793 295.1993 0027413 182.9552 203.8968  1.00274369 10946
BEIDOU-3 M21            
1 44793U 19078A   22282.36467553 -.00000101  00000+0  10000-3 0  9993
2 44793  54.9281 346.6960 0004949  12.2463 316.9220  1.86232370 19562
BEIDOU-3 M22            
1 44794U 19078B   22281.47346000 -.00000098  00000+0  00000+0 0  9998
2 44794  54.9025 346.7167 0002850   1.7820   1.7252  1.86232810 19550
BEIDOU-3 M19            
1 44864U 19090A   22281.74557875  .00000047  00000+0  00000+0 0  9997
2 44864  55.4807 107.7538 0014860 269.5055 110.8232  1.86231974 19142
BEIDOU-3 M20            
1 44865U 19090B   22281.85118924  .00000046  00000+0  00000+0 0  9997
2 44865  55.4829 107.7821 0012986 285.8804 255.1043  1.86231944 19119
BEIDOU-3 G2             
1 45344U 20017A   22282.52077013 -.00000156  00000+0  00000+0 0  9992
2 45344   2.0121 357.9231 0003869 165.6403 122.0561  1.00270549  9755
BEIDOU-3 G3             
1 45807U 20040A   22282.57010469 -.00000368  00000+0  00000+0 0  9994
2 45807   1.1923 307.2500 0008921 334.5309  52.1812  1.00269062  8571
